start=new Date('2022-07-10T00:00:00.000Z').valueOf();
sats=[{"EPHEMERIS_TYPE":"0","PERIOD":"95.593","TLE_LINE2":"2 48687  53.0534 317.4285 0001510  72.1839 287.9314 15.06384714 62665","INCLINATION":"53.0534","EPOCH":"2022-07-09T17:39:40.153824","GP_ID":"207783100","ARG_OF_PERICENTER":"72.1839","REV_AT_EPOCH":"6266","CENTER_NAME":"EARTH","PERIAPSIS":"546.215","REF_FRAME":"TEME","APOAPSIS":"548.306","RA_OF_ASC_NODE":"317.4285","DECAY_DATE":null,"BSTAR":"-0.00090893000000","SEMIMAJOR_AXIS":"6925.395","LAUNCH_DATE":"2021-05-26","CLASSIFICATION_TYPE":"U","MEAN_MOTION_DOT":"-0.00013788","TLE_LINE1":"1 48687U 21044BB  22190.73588141 -.00013788  00000-0 -90893-3 0  9996","MEAN_MOTION_DDOT":"0.0000000000000","RCS_SIZE":"LARGE","MEAN_MOTION":"15.06384714","COUNTRY_CODE":"US","FILE":"3510681","MEAN_ANOMALY":"287.9314","NORAD_CAT_ID":"48687","ELEMENT_SET_NO":"999","OBJECT_ID":"2021-044BB","SITE":"AFETR","OBJECT_NAME":"STARLINK-2627","OBJECT_TYPE":"PAYLOAD","TIME_SYSTEM":"UTC","MEAN_ELEMENT_THEORY":"SGP4","ECCENTRICITY":"0.00015100"},{"MEAN_ELEMENT_THEORY":"SGP4","ECCENTRICITY":"0.00012060","SITE":"AFETR","OBJECT_ID":"2021-044BC","OBJECT_NAME":"STARLINK-2742","OBJECT_TYPE":"PAYLOAD","TIME_SYSTEM":"UTC","NORAD_CAT_ID":"48688","ELEMENT_SET_NO":"999","TLE_LINE1":"1 48688U 21044BC  22190.73959618 -.00002458  00000-0 -14627-3 0  9991","MEAN_MOTION_DDOT":"0.0000000000000","RCS_SIZE":"LARGE","COUNTRY_CODE":"US","MEAN_MOTION":"15.06383530","FILE":"3510681","MEAN_ANOMALY":"267.9933","SEMIMAJOR_AXIS":"6925.399","LAUNCH_DATE":"2021-05-26","CLASSIFICATION_TYPE":"U","MEAN_MOTION_DOT":"-0.00002458","RA_OF_ASC_NODE":"317.4002","DECAY_DATE":null,"BSTAR":"-0.00014627000000","REV_AT_EPOCH":"6266","CENTER_NAME":"EARTH","PERIAPSIS":"546.429","APOAPSIS":"548.099","REF_FRAME":"TEME","EPHEMERIS_TYPE":"0","PERIOD":"95.593","TLE_LINE2":"2 48688  53.0567 317.4002 0001206  92.1194 267.9933 15.06383530 62667","INCLINATION":"53.0567","EPOCH":"2022-07-09T17:45:01.109952","GP_ID":"207784351","ARG_OF_PERICENTER":"92.1194"},{"RA_OF_ASC_NODE":"322.6542","BSTAR":"-0.00021936000000","DECAY_DATE":null,"SEMIMAJOR_AXIS":"6925.390","LAUNCH_DATE":"2021-05-26","MEAN_MOTION_DOT":"-0.00003546","CLASSIFICATION_TYPE":"U","EPOCH":"2022-07-09T16:16:45.321312","TLE_LINE2":"2 48689  53.0560 322.6542 0001462  77.7367 282.3786 15.06386614 62587","INCLINATION":"53.0560","PERIOD":"95.593","EPHEMERIS_TYPE":"0","ARG_OF_PERICENTER":"77.7367","GP_ID":"207784601","PERIAPSIS":"546.242","CENTER_NAME":"EARTH","REV_AT_EPOCH":"6258","REF_FRAME":"TEME","APOAPSIS":"548.267","OBJECT_ID":"2021-044BD","SITE":"AFETR","TIME_SYSTEM":"UTC","OBJECT_TYPE":"PAYLOAD","OBJECT_NAME":"STARLINK-2617","MEAN_ELEMENT_THEORY":"SGP4","ECCENTRICITY":"0.00014620","RCS_SIZE":"LARGE","MEAN_MOTION_DDOT":"0.0000000000000","TLE_LINE1":"1 48689U 21044BD  22190.67830233 -.00003546  00000-0 -21936-3 0  9996","MEAN_ANOMALY":"282.3786","FILE":"3510681","COUNTRY_CODE":"US","MEAN_MOTION":"15.06386614","NORAD_CAT_ID":"48689","ELEMENT_SET_NO":"999"},{"OBJECT_NAME":"STARLINK-2740","OBJECT_TYPE":"PAYLOAD","TIME_SYSTEM":"UTC","SITE":"AFETR","OBJECT_ID":"2021-044BE","ECCENTRICITY":"0.00011490","MEAN_ELEMENT_THEORY":"SGP4","COUNTRY_CODE":"US","MEAN_MOTION":"15.06407735","FILE":"3510681","MEAN_ANOMALY":"253.5980","TLE_LINE1":"1 48690U 21044BE  22190.68473634  .00001149  00000-0  95996-4 0  9990","MEAN_MOTION_DDOT":"0.0000000000000","RCS_SIZE":"LARGE","ELEMENT_SET_NO":"999","NORAD_CAT_ID":"48690","DECAY_DATE":null,"BSTAR":"0.00009599600000","RA_OF_ASC_NODE":"332.6548","CLASSIFICATION_TYPE":"U","MEAN_MOTION_DOT":"0.00001149","SEMIMAJOR_AXIS":"6925.325","LAUNCH_DATE":"2021-05-26","GP_ID":"207783350","ARG_OF_PERICENTER":"106.5136","PERIOD":"95.592","EPHEMERIS_TYPE":"0","TLE_LINE2":"2 48690  53.0545 332.6548 0001149 106.5136 253.5980 15.06407735 62445","INCLINATION":"53.0545","EPOCH":"2022-07-09T16:26:01.219776","APOAPSIS":"547.986","REF_FRAME":"TEME","REV_AT_EPOCH":"6244","CENTER_NAME":"EARTH","PERIAPSIS":"546.394"},{"DECAY_DATE":null,"BSTAR":"-0.00037391000000","RA_OF_ASC_NODE":"327.7780","CLASSIFICATION_TYPE":"U","MEAN_MOTION_DOT":"-0.00005846","LAUNCH_DATE":"2021-05-26","SEMIMAJOR_AXIS":"6925.345","GP_ID":"207783600","ARG_OF_PERICENTER":"72.5830","PERIOD":"95.592","EPHEMERIS_TYPE":"0","INCLINATION":"53.0548","TLE_LINE2":"2 48691  53.0548 327.7780 0001165  72.5830 287.5286 15.06401164 62517","EPOCH":"2022-07-09T15:46:52.377024","REF_FRAME":"TEME","APOAPSIS":"548.017","REV_AT_EPOCH":"6251","CENTER_NAME":"EARTH","PERIAPSIS":"546.403","OBJECT_NAME":"STARLINK-2750","OBJECT_TYPE":"PAYLOAD","TIME_SYSTEM":"UTC","SITE":"AFETR","OBJECT_ID":"2021-044BF","ECCENTRICITY":"0.00011650","MEAN_ELEMENT_THEORY":"SGP4","COUNTRY_CODE":"US","MEAN_MOTION":"15.06401164","FILE":"3510681","MEAN_ANOMALY":"287.5286","TLE_LINE1":"1 48691U 21044BF  22190.65755066 -.00005846  00000-0 -37391-3 0  9994","MEAN_MOTION_DDOT":"0.0000000000000","RCS_SIZE":"LARGE","ELEMENT_SET_NO":"999","NORAD_CAT_ID":"48691"},{"GP_ID":"207783852","ARG_OF_PERICENTER":"93.0072","EPHEMERIS_TYPE":"0","PERIOD":"95.592","INCLINATION":"53.0557","TLE_LINE2":"2 48692  53.0557 327.9620 0001302  93.0072 267.1066 15.06400242 62518","EPOCH":"2022-07-09T15:25:40.480896","REF_FRAME":"TEME","APOAPSIS":"548.114","REV_AT_EPOCH":"6251","CENTER_NAME":"EARTH","PERIAPSIS":"546.311","DECAY_DATE":null,"BSTAR":"0.00003664000000","RA_OF_ASC_NODE":"327.9620","CLASSIFICATION_TYPE":"U","MEAN_MOTION_DOT":"0.00000264","LAUNCH_DATE":"2021-05-26","SEMIMAJOR_AXIS":"6925.348","MEAN_MOTION":"15.06400242","COUNTRY_CODE":"US","FILE":"3510681","MEAN_ANOMALY":"267.1066","TLE_LINE1":"1 48692U 21044BG  22190.64282964  .00000264  00000-0  36640-4 0  9990","MEAN_MOTION_DDOT":"0.0000000000000","RCS_SIZE":"LARGE","ELEMENT_SET_NO":"999","NORAD_CAT_ID":"48692","OBJECT_NAME":"STARLINK-2752","OBJECT_TYPE":"PAYLOAD","TIME_SYSTEM":"UTC","OBJECT_ID":"2021-044BG","SITE":"AFETR","ECCENTRICITY":"0.00013020","MEAN_ELEMENT_THEORY":"SGP4"},{"SITE":"AFETR","OBJECT_ID":"2021-044BH","OBJECT_TYPE":"PAYLOAD","TIME_SYSTEM":"UTC","OBJECT_NAME":"STARLINK-2618","MEAN_ELEMENT_THEORY":"SGP4","ECCENTRICITY":"0.00014170","MEAN_MOTION_DDOT":"0.0000000000000","RCS_SIZE":"LARGE","TLE_LINE1":"1 48693U 21044BH  22190.65062787 -.00002683  00000-0 -16131-3 0  9992","FILE":"3510681","MEAN_ANOMALY":"280.0921","COUNTRY_CODE":"US","MEAN_MOTION":"15.06395814","NORAD_CAT_ID":"48693","ELEMENT_SET_NO":"999","RA_OF_ASC_NODE":"332.8000","BSTAR":"-0.00016131000000","DECAY_DATE":null,"LAUNCH_DATE":"2021-05-26","SEMIMAJOR_AXIS":"6925.361","MEAN_MOTION_DOT":"-0.00002683","CLASSIFICATION_TYPE":"U","INCLINATION":"53.0543","TLE_LINE2":"2 48693  53.0543 332.8000 0001417  80.0228 280.0921 15.06395814 62441","EPOCH":"2022-07-09T15:36:54.247968","EPHEMERIS_TYPE":"0","PERIOD":"95.592","ARG_OF_PERICENTER":"80.0228","GP_ID":"207784103","PERIAPSIS":"546.245","REV_AT_EPOCH":"6244","CENTER_NAME":"EARTH","REF_FRAME":"TEME","APOAPSIS":"548.208"},{"CENTER_NAME":"EARTH","REV_AT_EPOCH":"6237","PERIAPSIS":"546.090","APOAPSIS":"548.389","REF_FRAME":"TEME","EPHEMERIS_TYPE":"0","PERIOD":"95.593","EPOCH":"2022-07-09T16:26:40.360704","TLE_LINE2":"2 48694  53.0567 337.6412 0001660  69.0813 291.0353 15.06391529 62377","INCLINATION":"53.0567","GP_ID":"207782851","ARG_OF_PERICENTER":"69.0813","LAUNCH_DATE":"2021-05-26","SEMIMAJOR_AXIS":"6925.375","CLASSIFICATION_TYPE":"U","MEAN_MOTION_DOT":"-0.00002189","RA_OF_ASC_NODE":"337.6412","DECAY_DATE":null,"BSTAR":"-0.00012814000000","NORAD_CAT_ID":"48694","ELEMENT_SET_NO":"999","TLE_LINE1":"1 48694U 21044BJ  22190.68518936 -.00002189  00000-0 -12814-3 0  9993","RCS_SIZE":"LARGE","MEAN_MOTION_DDOT":"0.0000000000000","COUNTRY_CODE":"US","MEAN_MOTION":"15.06391529","MEAN_ANOMALY":"291.0353","FILE":"3510681","MEAN_ELEMENT_THEORY":"SGP4","ECCENTRICITY":"0.00016600","OBJECT_ID":"2021-044BJ","SITE":"AFETR","OBJECT_NAME":"STARLINK-2748","TIME_SYSTEM":"UTC","OBJECT_TYPE":"PAYLOAD"},{"MEAN_MOTION":"15.06389389","COUNTRY_CODE":"US","FILE":"3510681","MEAN_ANOMALY":"279.5895","TLE_LINE1":"1 48695U 21044BK  22190.70825745 -.00001824  00000-0 -10359-3 0  9993","MEAN_MOTION_DDOT":"0.0000000000000","RCS_SIZE":"LARGE","ELEMENT_SET_NO":"999","NORAD_CAT_ID":"48695","OBJECT_NAME":"STARLINK-2616","OBJECT_TYPE":"PAYLOAD","TIME_SYSTEM":"UTC","OBJECT_ID":"2021-044BK","SITE":"AFETR","ECCENTRICITY":"0.00013810","MEAN_ELEMENT_THEORY":"SGP4","GP_ID":"207783101","ARG_OF_PERICENTER":"80.5250","PERIOD":"95.593","EPHEMERIS_TYPE":"0","TLE_LINE2":"2 48695  53.0574 337.5976 0001381  80.5250 279.5895 15.06389389 62387","INCLINATION":"53.0574","EPOCH":"2022-07-09T16:59:53.443680","REF_FRAME":"TEME","APOAPSIS":"548.202","REV_AT_EPOCH":"6238","CENTER_NAME":"EARTH","PERIAPSIS":"546.290","DECAY_DATE":null,"BSTAR":"-0.00010359000000","RA_OF_ASC_NODE":"337.5976","CLASSIFICATION_TYPE":"U","MEAN_MOTION_DOT":"-0.00001824","LAUNCH_DATE":"2021-05-26","SEMIMAJOR_AXIS":"6925.381"},{"ECCENTRICITY":"0.00012920","MEAN_ELEMENT_THEORY":"SGP4","OBJECT_TYPE":"PAYLOAD","TIME_SYSTEM":"UTC","OBJECT_NAME":"STARLINK-2753","SITE":"AFETR","OBJECT_ID":"2021-044BL","ELEMENT_SET_NO":"999","NORAD_CAT_ID":"48696","FILE":"3510681","MEAN_ANOMALY":"278.2534","MEAN_MOTION":"15.06382519","COUNTRY_CODE":"US","MEAN_MOTION_DDOT":"0.0000000000000","RCS_SIZE":"LARGE","TLE_LINE1":"1 48696U 21044BL  22190.69859322 -.00003125  00000-0 -19108-3 0  9997","MEAN_MOTION_DOT":"-0.00003125","CLASSIFICATION_TYPE":"U","LAUNCH_DATE":"2021-05-26","SEMIMAJOR_AXIS":"6925.402","BSTAR":"-0.00019108000000","DECAY_DATE":null,"RA_OF_ASC_NODE":"342.6246","REF_FRAME":"TEME","APOAPSIS":"548.162","PERIAPSIS":"546.372","REV_AT_EPOCH":"6231","CENTER_NAME":"EARTH","ARG_OF_PERICENTER":"81.8601","GP_ID":"207784352","TLE_LINE2":"2 48696  53.0550 342.6246 0001292  81.8601 278.2534 15.06382519 62311","INCLINATION":"53.0550","EPOCH":"2022-07-09T16:45:58.454208","EPHEMERIS_TYPE":"0","PERIOD":"95.593"}];
